1 19218U 88051  D 92156.26790140  .00018494 +00000-0 +19578-2 0  9993
2 19218 010.1143 116.6633 6171380 030.0285 354.1128 03.81699138023897
1 19218U 88051  D 92157.05365422  .00016449 +00000-0 +17006-2 0  9994
2 19218 010.1223 116.0926 6172078 031.1641 353.7570 03.81708883023926
1 19218U 88051  D 92157.05365359  .00016528 +00000-0 +17006-2 0  9991
2 19218 010.1223 116.0925 6172078 031.1641 353.7570 03.81708883023925
1 19218U 88051  D 92158.10137865  .00017328 +00000-0 +17735-2 0  9995
2 19218 010.1191 115.3006 6171960 032.7412 353.5648 03.81747669023966
1 19218U 88051  D 92159.14889472  .00017250 +00000-0 +17713-2 0  9998
2 19218 010.1218 114.4747 6171629 034.3487 353.2216 03.81783621024002
1 19218U 88051  D 92160.45814893  .00017192 +00000-0 +17779-2 0  9996
2 19218 010.1236 113.4375 6171130 036.3686 352.7894 03.81828622024050
1 19218U 88051  D 92162.02903821  .00023191 +00000-0 +23751-2 0  9994
2 19218 010.1284 112.2132 6170882 038.7188 352.3402 03.81907721024113
1 19218U 88051  D 92164.12295108  .00022509 +00000-0 +23049-2 0  9991
2 19218 010.1236 110.5982 6170249 041.9015 351.5347 03.82001058024192
1 19218U 88051  D 92165.16974066  .00022605 +00000-0 +23241-2 0  9994
2 19218 010.1151 109.8451 6169814 043.4476 351.1704 03.82048814024233
1 19218U 88051  D 92166.47802599  .00021938 +00000-0 +21991-2 0  9998
2 19218 010.1150 108.7494 6170122 045.5147 350.6667 03.82103922024288
1 19218U 88051  D 92167.26290630  .00022619 +00000-0 +22639-2 0  9990
2 19218 010.1065 108.1198 6169909 046.7623 350.3741 03.82141835024310
1 19218U 88051  D 92171.18615763  .00021282 +00000-0 +21153-2 0  9999
2 19218 010.1202 104.9335 6169099 052.8427 348.7169 03.82303089024462
1 19218U 88051  D 92171.44775076  .00021444 +00000-0 +21318-2 0  9995
2 19218 010.1262 104.6844 6168909 053.3097 348.7549 03.82315237024479
1 19218U 88051  D 92175.37004177  .00020348 +00000-0 +21229-2 0  9991
2 19218 010.1327 101.5755 6166448 059.3551 348.3535 03.82484081024627
1 19218U 88051  D 92177.19850869  .00019021 +00000-0 +19664-2 0  9996
2 19218 010.1278 100.1485 6166355 062.1509 346.2482 03.82550456024694
1 19218U 88051  D 92177.19853945  .00020062 +00000-0 +20313-2 0  9994
2 19218 010.1206 100.1572 6166795 062.1426 346.2908 03.82552500024693
1 19218U 88051  D 92178.50502533  .00020628 +00000-0 +21181-2 0  9996
2 19218 010.1304 099.1315 6166025 064.1357 345.7202 03.82610362024743
1 19218U 88051  D 92180.07249716  .00017647 +00000-0 +16449-2 0  9990
2 19218 010.1044 098.0789 6168426 066.2946 344.8101 03.82654980024800
1 19218U 88051  D 92180.85634032  .00027311 +00000-0 +28007-2 0  9997
2 19218 010.1357 097.2894 6165387 067.6831 344.7013 03.82712417024830
1 19218U 88051  D 92182.16210172  .00017634 +00000-0 +17368-2 0  9993
2 19218 010.1204 096.2177 6166321 069.7872 343.6357 03.82730305024881
1 19218U 88051  D 92183.20694423  .00022227 +00000-0 +21327-2 0  9998
2 19218 010.1184 095.3798 6166688 071.3977 343.3711 03.82782354024925
1 19218U 88051  D 92184.77367744  .00019348 +00000-0 +18461-2 0  9999
2 19218 010.1169 094.1389 6166545 073.8116 342.5032 03.82840079024987
1 19218U 88051  D 92185.03477784  .00019388 +00000-0 +18435-2 0  9990
2 19218 010.1176 093.9333 6166459 074.2128 342.3617 03.82850087024991
1 19218U 88051  D 92186.07910248  .00019758 +00000-0 +18825-2 0  9996
2 19218 010.1207 093.1116 6166122 075.8153 341.7910 03.82891996025038
1 19218U 88051  D 92187.12330548  .00019354 +00000-0 +17770-2 0  9992
2 19218 010.1063 092.2860 6166835 077.4246 341.1906 03.82931051025076
1 19218U 88051  D 92188.16738442  .00019477 +00000-0 +17823-2 0  9997
2 19218 010.1057 091.4625 6166646 079.0317 340.5831 03.82972075025112
1 19218U 88051  D 92192.34239773  .00019130 +00000-0 +17792-2 0  9996
2 19218 010.1104 088.1476 6165260 085.4893 337.8397 03.83129542025270
1 19218U 88051  D 92192.60326916  .00019225 +00000-0 +17330-2 0  9994
2 19218 010.1071 087.9450 6166003 085.8883 337.6599 03.83141488025287
1 19218U 88051  D 92193.12501035  .00019579 +00000-0 +17553-2 0  9998
2 19218 010.1079 087.5434 6165872 086.6743 337.3646 03.83165359025306
1 19218U 88051  D 92193.64666881  .00019768 +00000-0 +17707-2 0  9997
2 19218 010.1084 087.1368 6165739 087.4686 336.9877 03.83188514025322
1 19218U 88051  D 92194.16829822  .00019767 +00000-0 +17774-2 0  9994
2 19218 010.1088 086.7265 6165601 088.2689 336.5956 03.83210298025348
1 19218U 88051  D 92194.68990379  .00019920 +00000-0 +17839-2 0  9990
2 19218 010.1094 086.3156 6165451 089.0701 336.2107 03.83232018025368
1 19218U 88051  D 92195.21143861  .00022383 +00000-0 +19595-2 0  9994
2 19218 010.1244 085.8462 6165946 089.9085 335.8001 03.83262087025381
1 19218U 88051  D 92195.21144033  .00020089 +00000-0 +17491-2 0  9990
2 19218 010.1213 085.8425 6166034 089.9196 335.7807 03.83254466025383
1 19218U 88051  D 92195.21145209  .00021959 +00000-0 +19282-2 0  9993
2 19218 010.1243 085.8592 6165788 089.8964 335.8056 03.83259281025385
1 19218U 88051  D 92195.21148075  .00019975 +00000-0 +17880-2 0  9994
2 19218 010.1097 085.9039 6165317 089.8726 335.8221 03.83253599025383
1 19218U 88051  D 92200.68582256  .00018522 +00000-0 +15727-2 0  9990
2 19218 010.1239 081.5014 6165060 098.3643 331.5944 03.83510088025591
1 19218U 88051  D 92201.72783037  .00020406 +00000-0 +17674-2 0  9993
2 19218 010.1233 080.6605 6164231 100.0125 330.3197 03.83556381025634
1 19218U 88051  D 92201.98836790  .00021560 +00000-0 +18718-2 0  9998
2 19218 010.1221 080.4779 6163961 100.3867 330.0936 03.83571929025640
1 19218U 88051  D 92202.24888742  .00021658 +00000-0 +18778-2 0  9996
2 19218 010.1219 080.2708 6163917 100.7892 329.8403 03.83583608025653
1 19218U 88051  D 92203.55136271  .00023214 +00000-0 +18852-2 0  9997
2 19218 010.1260 079.2037 6165154 102.8216 328.6147 03.83650408025701
1 19218U 88051  D 92205.11387262  .00031957 +00000-0 +26726-2 0  9991
2 19218 010.1239 077.9814 6163741 105.2241 326.9146 03.83751106025763
1 19218U 88051  D 92208.49812328  .00025352 +00000-0 +19493-2 0  9996
2 19218 010.1100 075.3038 6164825 110.4004 323.0937 03.83904534025894
1 19218U 88051  D 92210.05956732  .00019918 +00000-0 +14932-2 0  9993
2 19218 010.1171 074.0128 6165099 112.8517 321.1825 03.83954631025952
1 19218U 88051  D 92210.57987422  .00019374 +00000-0 +14421-2 0  9999
2 19218 010.1146 073.6144 6165261 113.6276 320.3870 03.83973588025974
1 19218U 88051  D 92211.10020758  .00022294 +00000-0 +16804-2 0  9991
2 19218 010.1213 073.1999 6164639 114.4471 319.6895 03.84004048025993
1 19218U 88051  D 92211.88064228  .00013315 +00000-0 +10321-2 0  9998
2 19218 010.1248 072.7086 6163996 115.4620 318.5686 03.84011583026028
1 19218U 88051  D 92212.14095467  .00014827 +00000-0 +11727-2 0  9997
2 19218 010.1307 072.5042 6163260 115.8544 318.4475 03.84022994026031
1 19218U 88051  D 92215.00144493  .00023944 +00000-0 +17097-2 0  9995
2 19218 010.1192 070.1223 6164737 120.4410 314.1072 03.84188983026141
1 19218U 88051  D 92217.08075116  .00028095 +00000-0 +19682-2 0  9994
2 19218 010.1279 068.4060 6164477 123.7476 310.4093 03.84309962026228
1 19218U 88051  D 92218.12019872  .00028261 +00000-0 +19757-2 0  9995
2 19218 010.1287 067.5836 6164052 125.3503 308.6082 03.84368771026260
1 19218U 88051  D 92218.63981835  .00028486 +00000-0 +19778-2 0  9990
2 19218 010.1276 067.1823 6164014 126.1370 307.6542 03.84399371026281
1 19218U 88051  D 92220.71773979  .00037834 +00000-0 +26271-2 0  9993
2 19218 010.1465 065.4993 6162942 129.4200 303.7609 03.84559910026363
1 19218U 88051  D 92221.75603203  .00017315 +00000-0 +12255-2 0  9999
2 19218 010.1480 064.7580 6162179 130.9125 301.3251 03.84613813026404
1 19218U 88051  D 92222.01574933  .00041493 +00000-0 +28785-2 0  9995
2 19218 010.1498 064.4860 6162302 131.4086 300.9546 03.84658634026414
1 19218U 88051  D 92222.53473936  .00037601 +00000-0 +25714-2 0  9998
2 19218 010.1463 064.0529 6162477 132.2295 299.6635 03.84692710026436
1 19218U 88051  D 92223.05374247  .00035119 +00000-0 +23845-2 0  9996
2 19218 010.1505 063.5870 6162384 133.1076 298.4351 03.84723044026459
1 19218U 88051  D 92224.09162395  .00034948 +00000-0 +23416-2 0  9993
2 19218 010.1474 062.7814 6162217 134.6831 296.0386 03.84795440026498
1 19218U 88051  D 92224.61048675  .00033386 +00000-0 +22392-2 0  9992
2 19218 010.1513 062.3877 6161984 135.4640 294.8202 03.84825896026519
1 19218U 88051  D 92226.68538185  .00033247 +00000-0 +21750-2 0  9994
2 19218 010.1536 060.7418 6161644 138.6644 289.8586 03.84965434026599
1 19218U 88051  D 92227.72227239  .00033880 +00000-0 +24041-2 0  9994
2 19218 010.1682 060.0401 6159177 140.1160 286.9911 03.85037598026632
1 19218U 88051  D 92227.98161304  .00034872 +00000-0 +21139-2 0  9999
2 19218 010.1588 059.6139 6162906 140.8446 286.4743 03.85057145026646
1 19218U 88051  D 92228.75871348  .00035323 +00000-0 +22533-2 0  9992
2 19218 010.1631 058.9903 6161315 142.0228 283.7786 03.85113543026676
1 19218U 88051  D 92229.01785075  .00036234 +00000-0 +23100-2 0  9996
2 19218 010.1699 058.7808 6161119 142.4435 283.0622 03.85135476026680
1 19218U 88051  D 92230.05427512  .00036266 +00000-0 +22508-2 0  9997
2 19218 010.1552 058.0064 6161258 143.9491 280.2004 03.85209744026725
1 19218U 88051  D 92231.09024784  .00035859 +00000-0 +22220-2 0  9994
2 19218 010.1587 057.1789 6160800 145.5740 276.9681 03.85283134026766
1 19218U 88051  D 92231.60811882  .00035004 +00000-0 +21525-2 0  9993
2 19218 010.1563 056.7678 6160753 146.3533 275.2922 03.85316806026783
1 19218U 88051  D 92232.64372951  .00034830 +00000-0 +21409-2 0  9994
2 19218 010.1571 055.9380 6160279 147.9679 271.9597 03.85388496026824
1 19218U 88051  D 92233.67900143  .00034926 +00000-0 +21683-2 0  9998
2 19218 010.1630 055.1359 6159558 149.5431 268.4210 03.85460457026865
1 19218U 88051  D 92234.71405236  .00035690 +00000-0 +22563-2 0  9994
2 19218 010.1713 054.3531 6158605 151.1062 264.8622 03.85537811026902
1 19218U 88051  D 92235.74880403  .00035825 +00000-0 +22724-2 0  9990
2 19218 010.1726 053.5273 6158018 152.7135 261.1719 03.85612991026940
